#dP2024 11 14  0  0  0.00000000      97 __u+U IGS20 FIT  IAC
## 2340 345600.00000000   900.00000000 60628 0.0000000000000
+  116   C06C07C08C09C10C11C12C13C14C16C19C20C21C22C23C24C25
+        C26C27C28C29C30C32C33C34C35C36C37C38C40C41C42C43C44
+        C45E02E03E04E05E06E07E08E09E10E11E12E13E14E15E18E19
+        E21E24E25E26E27E29E30E31E33E34E36G02G03G04G05G06G07
+        G08G09G10G11G12G13G14G15G16G17G18G19G20G21G22G23G24
+        G25G26G27G28G29G30G31G32J02J03J04R01R03R04R05R07R08
+        R09R11R12R14R15R16R17R18R19R20R21R22R24R26  0  0  0
++         7  7  7  7  7  6  6  8  6  7  6  6  5  6  6  5  5
++         5  5  6  5  5  5  6  5  6  5  6  6  6  6  5  6  6
++         6  4  4  4  4  3  4  4  3  4  4  4  4  5  4  4  4
++         4  4  4  4  4  4  4  4  4  4  4  3  3  3  3  3  3
++         3  3  3  4  3  3  3  3  3  3  3  3  4  3  3  3  3
++         3  4  3  3  3  3  3  3 11 11 11  7  6  6  7  6  6
++         6  6  6  7  7  6  7  7  7  7  6  6  7  7  0  0  0
%c M  cc GPS ccc cccc cccc cccc cccc ccccc ccccc ccccc ccccc
%c cc cc ccc ccc cccc cccc cccc cccc ccccc ccccc ccccc ccccc
%f  1.2500000  1.025000000  0.00000000000  0.000000000000000
%f  0.0000000  0.000000000  0.00000000000  0.000000000000000
%i    0    0    0    0      0      0      0      0         0
%i    0    0    0    0      0      0      0      0         0
/* INFORMATION & ANALYSIS CENTER (IAC)            FINAL DATA
/* S/V CLOCKS ARE ALIGNED TO GNSS TIME                      
/* G:C1WC2W R:C1PC2P E:C1XC5X C:C2IC6I J:C1CC2S             
/* PCV:IGS20_2317 OL/AL:FES2004  NONE     YN ORB:CoN CLK:CoN
*  2024 11 14  8 30  0.00000000
PC06 -14940.137799  25634.814398  29930.611229    434.524131
PC07  -9645.616277  40924.559289   4730.018190   -205.473044
PC08    760.351064  25841.247466 -33243.584784   -787.181357
PC09  -6781.936355  25402.427648  33330.584088   -628.650367
PC10  -4357.103778  42233.586653  -1164.189479   -281.737713
PC11 -21549.633766   1365.121220  17760.960803    241.901466
PC12  -7004.506346 -14157.937096  23052.670737   -248.772454
PC13   6617.043404  29404.887636 -29162.692304     88.929828
PC14 -15957.457023  -7629.686390 -21568.537683   -426.799459
PC16 -19250.583955  24797.983053  28283.757108    104.162319
PC19  15200.122749  -3282.263784  23186.544122   -964.590552
PC20  14561.325639  15914.969062  17718.723691   -909.612888
PC21  -4921.032673 -27445.517101   -823.827925   -914.778441
PC22   7178.891500 -21908.374381  15698.645933    179.197769
PC23 -13022.097018  11827.556975  21662.778152   -885.629473
PC24 -23245.673802 -13946.933192  -6708.729943    766.666152
PC25 -25818.273626   -984.709088  10560.467157    560.577691
PC26  -7776.721634 -17955.522551 -19933.436750   -377.032104
PC27  -1801.966154  19494.034801 -19899.069440    396.099287
PC28 -16447.466775  20914.192571  -8412.088660    308.335234
PC29  23480.755523  -9684.655128 -11556.675235    362.022866
PC30  14834.592680   7975.105565 -22256.106516     26.705839
PC32   5074.935731  27437.140553    705.232403   -802.342066
PC33 -15217.103300   3295.158387 -23163.865784   -950.885741
PC34 -16172.529917  -6459.853138  21793.774653    564.025602
PC35  16147.976933 -21419.517811   7746.004335    208.617937
PC36  25632.743194   1224.765655 -10930.716349    221.047086
PC37   7053.887893  18084.409222  20040.258440   -893.166257
PC38  -6630.774379  23212.754456 -34493.169955    191.172710
PC40 -15928.847245  38568.442889   7170.029655   -102.467083
PC41  -7651.605214  21256.537112 -16343.564612   -890.187234
PC42 -14073.474532 -17604.972678 -16401.803945   -514.827930
PC43 -23424.986548   8804.806184  12325.374433     92.162555
PC44   1129.144028 -19727.611384  19704.315704    651.949911
PC45  13517.200949 -11371.416299 -21607.551193   -167.114570
PE02  -5187.592957  19351.654931  21778.353364    174.660335
PE03 -13735.213191  26188.066999  -1415.944129   -153.388795
PE04   -900.290233 -24564.690055 -16491.240212    -81.987991
PE05 -19936.738736  12367.370523 -18051.865756   4801.636156
PE06  -8588.648829 -17885.915064 -21987.612702    -47.298344
PE07  14358.828963   9093.111751  24231.240576   -152.777199
PE08    182.982166  24906.657853  15991.281051   -367.678841
PE09 -14200.193720  -9097.166753 -24331.767528   -662.960224
PE10 -17428.185002 -12079.483484  20660.058763   -669.806035
PE11 -25708.136580  -6711.593076  13039.551525    783.211649
PE12  -7662.645795 -15183.022478  24229.934853  -1295.158940
PE13  25366.867569   6986.368423 -13549.292871    -26.795613
PE14 -10675.895252 -13270.155626  17856.490640    376.657703
PE15   6841.474574  15248.979675 -24416.239603   -139.051832
PE18   7526.309652  23386.281683 -19785.248243    771.302700
PE19  14869.736288 -25399.901060   3169.476191    932.200317
PE21  18289.672813  -1599.976027 -23219.434860   -628.255193
PE24 -21003.662915 -17797.145209  10891.430080  -1098.873399
PE25 -18501.557058   1116.031759  23083.628162     11.210268
PE26  28557.243291  -5543.622813   5464.475886   -212.002266
PE27  21045.744105  17665.939305 -10991.651745   -503.760317
PE29  20062.801355 -12673.017411  17692.148818    -45.574840
PE30  11342.471475  26294.080563   7452.814737   -923.950808
PE31 -11365.485746 -26270.169841  -7551.924119    -42.887731
PE33  15813.025767 -14301.743045  20539.069159     16.132766
PE34 -15389.504490  14446.143337 -20753.439329   -145.863488
PE36 -28718.273465   5160.294482  -4965.730001   -310.962659
PG02   3840.698887  14370.354852 -21536.577866   -314.909250
PG03  11715.801865  22817.292574  -7276.712973    599.395941
PG04   2265.144140  21419.848944  15454.749013    479.207888
PG05    823.036994 -18519.913077  18818.054590   -192.952881
PG06  25864.315008  -5457.557971   3238.614998   -113.468496
PG07  20205.219140   8499.038570  15840.530574    -20.257613
PG08  -5128.069702  25333.975387  -5094.890312    413.110452
PG09  10079.687265  13727.652822  20269.508720    442.993852
PG10 -18581.727999  -3881.886414 -18498.726099   -195.259186
PG11  17791.258049 -12397.824657  15330.485137   -749.989906
PG12  -6925.299009 -23425.077327 -10764.486218   -551.968073
PG13  13642.938025 -22611.431395    827.701357    685.957583
PG14  19993.861996   7324.363819 -15973.416050    539.440166
PG15   1384.780644 -25896.525851  -5871.904660    227.598014
PG16  -7179.283013  14907.757684  20326.683275   -128.797968
PG17  16752.926561  -3187.405554 -19994.884316    559.231936
PG18 -21626.277825  -6865.439201  14022.099534   -660.306298
PG19  18087.720860 -12316.188254 -14887.603638    562.567090
PG20  10784.492551 -10937.580513  21742.833576    368.752630
PG21  -2570.769874  15569.224108 -20785.143743     97.496005
PG22  16619.565497   -446.862348 -20245.838993    -79.276574
PG23 -20089.543440 -15457.537606  -8279.596705    362.915369
PG24  -1897.440520 -15976.306087 -21572.273032   -480.333284
PG25 -17376.376401 -20247.561285    782.820676    499.014354
PG26 -15717.471818   5622.014406  20553.130916     26.684763
PG27 -12557.834100  22496.536641   5135.388357    -34.716730
PG28 -26039.606669   5186.340785    789.311220   -478.447801
PG29  -8071.195028 -15130.037724  20207.561552   -563.903027
PG30  26037.855006    655.452811   6037.682277   -282.245221
PG31 -21882.252069  10515.282566  10950.995514   -221.787123
PG32 -16833.536880   6543.542893 -19184.756157   -573.933067
PJ02 -26092.498757  24208.976164  27856.159556      0.389868
PJ03 -34631.141292  18726.998930 -10337.248320     -6.652887
PJ04 -20334.414338  30353.311338 -16113.725484     21.666653
PR01   4436.271570 -23097.385918   9864.377252    104.374944
PR03  -9371.374893 -11829.929915 -20542.383515    111.353061
PR04 -10473.015820   6607.819079 -22271.982414    263.908102
PR05  -6292.740881  21542.749722 -12087.762930    140.677396
PR07   9507.941324  11245.569932  20847.105530     94.954147
PR08  10524.567322  -7024.699029  22211.493004     -6.260388
PR09  12187.616145  15820.794186  15937.896920    220.458476
PR11  20441.924234   3909.603630 -14752.556527      6.960574
PR12   5592.786108  -9492.538747 -22985.236081     47.220766
PR14 -21996.879241 -12895.165960    -99.532322     27.232173
PR15 -19623.495240  -2702.774540  16082.806235     74.138631
PR16  -5645.138465   9300.123967  23077.601082     30.788451
PR17 -16406.654463  -1296.597166  19521.932756    139.725265
PR18 -23034.531385   8856.125522   6389.759820    171.806228
PR19 -19719.212344  13812.411234  -8435.514766   -298.391297
PR20  -1301.063588  11846.237765 -22531.012086   -121.915907
PR21  15583.183644   2064.491263 -20069.019983   -151.174430
PR22  23339.884602  -8966.402255  -5039.279690     -9.756399
PR24     -8.852158 -12117.844215  22467.420565    -80.062615
PR26  10635.107143  -5134.855086  22623.882795   -133.528107
EOF
